{"type": "FeatureCollection", "features": [ {"type": "Feature", "properties": {"norad_id": 39537, "name": "FENGYUN 1C DEB", "group": "fengyun-1c-debris", "lat": 77.77516631643297, "lon": 11.703339730049793, "alt_km": 1051.2075636678383, "timestamp": "2025-12-24T03:53:29.937669+00:00", "meta": {"OBJECT_NAME": "FENGYUN 1C DEB", "OBJECT_ID": "1999-025EWE", "EPOCH": "2025-12-19T15:51:43.070688", "MEAN_MOTION": 13.84193589, "ECCENTRICITY": 0.0177797, "INCLINATION": 99.1526, "RA_OF_ASC_NODE": 139.2359, "ARG_OF_PERICENTER": 322.4144, "MEAN_ANOMALY": 36.4691, "EPHEMERIS_TYPE": 0, "CLASSIFICATION_TYPE": "U", "NORAD_CAT_ID": 39537, "ELEMENT_SET_NO": 999, "REV_AT_EPOCH": 59352, "BSTAR": 0.0010435, "MEAN_MOTION_DOT": 1.271e-05, "MEAN_MOTION_DDOT": 0}, "tle": {"line1": "1 39537U 99025EWE 25353.66091517  .00001271  00000+0  10435-2 0  9990", "line2": "2 39537  99.1526 139.2359 0177797 322.4144  36.4691 13.84193589593525"}}, "geometry": {"type": "Point", "coordinates": [11.703339730049793, 77.77516631643297]}}, {"type": "Feature", "properties": {"norad_id": 39541, "name": "FENGYUN 1C DEB", "group": "fengyun-1c-debris", "lat": -45.43390077318408, "lon": -148.86167419479102, "alt_km": 882.0893661132432, "timestamp": "2025-12-24T03:53:29.937679+00:00", "meta": {"OBJECT_NAME": "FENGYUN 1C DEB", "OBJECT_ID": "1999-025EWJ", "EPOCH": "2025-12-14T09:31:50.250432", "MEAN_MOTION": 14.20397112, "ECCENTRICITY": 0.00718166, "INCLINATION": 98.681, "RA_OF_ASC_NODE": 30.4764, "ARG_OF_PERICENTER": 68.7411, "MEAN_ANOMALY": 292.1416, "EPHEMERIS_TYPE": 0, "CLASSIFICATION_TYPE": "U", "NORAD_CAT_ID": 39541, "ELEMENT_SET_NO": 999, "REV_AT_EPOCH": 59026, "BSTAR": 0.00071004371, "MEAN_MOTION_DOT": 1.519e-05, "MEAN_MOTION_DDOT": 0}, "tle": {"line1": "1 39541U 99025EWJ 25348.39710938  .00001519  00000+0  71004-3 0  9999", "line2": "2 39541  98.6810  30.4764 0071816  68.7411 292.1416 14.20397112590267"}}, "geometry": {"type": "Point", "coordinates": [-148.86167419479102, -45.43390077318408]}}, {"type": "Feature", "properties": {"norad_id": 39543, "name": "FENGYUN 1C DEB", "group": "fengyun-1c-debris", "lat": 41.515398709592425, "lon": -144.5511258373542, "alt_km": 768.1491167649301, "timestamp": "2025-12-24T03:53:29.937691+00:00", "meta": {"OBJECT_NAME": "FENGYUN 1C DEB", "OBJECT_ID": "1999-025EWL", "EPOCH": "2025-12-22T19:42:07.379136", "MEAN_MOTION": 13.70212175, "ECCENTRICITY": 0.03390824, "INCLINATION": 99.0408, "RA_OF_ASC_NODE": 26.0838, "ARG_OF_PERICENTER": 115.719, "MEAN_ANOMALY": 247.9374, "EPHEMERIS_TYPE": 0, "CLASSIFICATION_TYPE": "U", "NORAD_CAT_ID": 39543, "ELEMENT_SET_NO": 999, "REV_AT_EPOCH": 49323, "BSTAR": 0.00074325166, "MEAN_MOTION_DOT": 9.45e-06, "MEAN_MOTION_DDOT": 0}, "tle": {"line1": "1 39543U 99025EWL 25356.82091874  .00000945  00000+0  74325-3 0  9990", "line2": "2 39543  99.0408  26.0838 0339082 115.7190 247.9374 13.70212175493238"}}, "geometry": {"type": "Point", "coordinates": [-144.5511258373542, 41.515398709592425]}}, {"type": "Feature", "properties": {"norad_id": 39544, "name": "FENGYUN 1C DEB", "group": "fengyun-1c-debris", "lat": -17.76109745497569, "lon": 54.07326070757515, "alt_km": 909.4830898069913, "timestamp": "2025-12-24T03:53:29.937702+00:00", "meta": {"OBJECT_NAME": "FENGYUN 1C DEB", "OBJECT_ID": "1999-025EWM", "EPOCH": "2025-12-18T10:16:20.672256", "MEAN_MOTION": 14.05533723, "ECCENTRICITY": 0.00544071, "INCLINATION": 98.7417, "RA_OF_ASC_NODE": 231.3683, "ARG_OF_PERICENTER": 353.4562, "MEAN_ANOMALY": 6.589, "EPHEMERIS_TYPE": 0, "CLASSIFICATION_TYPE": "U", "NORAD_CAT_ID": 39544, "ELEMENT_SET_NO": 999, "REV_AT_EPOCH": 56935, "BSTAR": 0.00032895311, "MEAN_MOTION_DOT": 4.99e-06, "MEAN_MOTION_DDOT": 0}, "tle": {"line1": "1 39544U 99025EWM 25352.42801704  .00000499  00000+0  32895-3 0  9994", "line2": "2 39544  98.7417 231.3683 0054407 353.4562   6.5890 14.05533723569356"}}, "geometry": {"type": "Point", "coordinates": [54.07326070757515, -17.76109745497569]}}, {"type": "Feature", "properties": {"norad_id": 40688, "name": "FENGYUN 1C DEB", "group": "fengyun-1c-debris", "lat": -18.087065551273753, "lon": 150.15716156116522, "alt_km": 856.5910318258602, "timestamp": "2025-12-24T03:53:29.937716+00:00", "meta": {"OBJECT_NAME": "FENGYUN 1C DEB", "OBJECT_ID": "1999-025EWU", "EPOCH": "2025-12-21T04:50:00.684384", "MEAN_MOTION": 13.83836101, "ECCENTRICITY": 0.014203, "INCLINATION": 98.9696, "RA_OF_ASC_NODE": 144.3746, "ARG_OF_PERICENTER": 8.7318, "MEAN_ANOMALY": 351.626, "EPHEMERIS_TYPE": 0, "CLASSIFICATION_TYPE": "U", "NORAD_CAT_ID": 40688, "ELEMENT_SET_NO": 999, "REV_AT_EPOCH": 30034, "BSTAR": 0.00031609, "MEAN_MOTION_DOT": 3.37e-06, "MEAN_MOTION_DDOT": 0}, "tle": {"line1": "1 40688U 99025EWU 25355.20139681  .00000337  00000+0  31609-3 0  9995", "line2": "2 40688  98.9696 144.3746 0142030   8.7318 351.6260 13.83836101300348"}}, "geometry": {"type": "Point", "coordinates": [150.15716156116522, -18.087065551273753]}}, {"type": "Feature", "properties": {"norad_id": 40689, "name": "FENGYUN 1C DEB", "group": "fengyun-1c-debris", "lat": 4.854737408471561, "lon": -85.32563069313858, "alt_km": 923.5522283196651, "timestamp": "2025-12-24T03:53:29.937726+00:00", "meta": {"OBJECT_NAME": "FENGYUN 1C DEB", "OBJECT_ID": "1999-025EWV", "EPOCH": "2025-12-15T14:00:17.692704", "MEAN_MOTION": 13.64713186, "ECCENTRICITY": 0.03107205, "INCLINATION": 99.1258, "RA_OF_ASC_NODE": 267.381, "ARG_OF_PERICENTER": 93.9269, "MEAN_ANOMALY": 269.7453, "EPHEMERIS_TYPE": 0, "CLASSIFICATION_TYPE": "U", "NORAD_CAT_ID": 40689, "ELEMENT_SET_NO": 999, "REV_AT_EPOCH": 54922, "BSTAR": 0.0014500265, "MEAN_MOTION_DOT": 1.584e-05, "MEAN_MOTION_DDOT": 0}, "tle": {"line1": "1 40689U 99025EWV 25349.58353811  .00001584  00000+0  14500-2 0  9998", "line2": "2 40689  99.1258 267.3810 0310720  93.9269 269.7453 13.64713186549229"}}, "geometry": {"type": "Point", "coordinates": [-85.32563069313858, 4.854737408471561]}}, {"type": "Feature", "properties": {"norad_id": 40691, "name": "FENGYUN 1C DEB", "group": "fengyun-1c-debris", "lat": 72.66793424854416, "lon": -0.61561122802873, "alt_km": 1006.6141113869062, "timestamp": "2025-12-24T03:53:29.937736+00:00", "meta": {"OBJECT_NAME": "FENGYUN 1C DEB", "OBJECT_ID": "1999-025EWX", "EPOCH": "2025-12-03T08:15:02.306016", "MEAN_MOTION": 13.89944729, "ECCENTRICITY": 0.0128434, "INCLINATION": 99.0573, "RA_OF_ASC_NODE": 9.8547, "ARG_OF_PERICENTER": 336.6089, "MEAN_ANOMALY": 22.9259, "EPHEMERIS_TYPE": 0, "CLASSIFICATION_TYPE": "U", "NORAD_CAT_ID": 40691, "ELEMENT_SET_NO": 999, "REV_AT_EPOCH": 55305, "BSTAR": 0.00023937, "MEAN_MOTION_DOT": 2.71e-06, "MEAN_MOTION_DDOT": 0}, "tle": {"line1": "1 40691U 99025EWX 25337.34377669  .00000271  00000+0  23937-3 0  9996", "line2": "2 40691  99.0573   9.8547 0128434 336.6089  22.9259 13.89944729553058"}}, "geometry": {"type": "Point", "coordinates": [-0.61561122802873, 72.66793424854416]}}, {"type": "Feature", "properties": {"norad_id": 40695, "name": "FENGYUN 1C DEB", "group": "fengyun-1c-debris", "lat": 52.4926513295178, "lon": -49.74078052037168, "alt_km": 914.8816016080482, "timestamp": "2025-12-24T03:53:29.937749+00:00", "meta": {"OBJECT_NAME": "FENGYUN 1C DEB", "OBJECT_ID": "1999-025EXB", "EPOCH": "2025-12-22T14:53:14.266464", "MEAN_MOTION": 14.50985865, "ECCENTRICITY": 0.02804135, "INCLINATION": 99.4259, "RA_OF_ASC_NODE": 116.031, "ARG_OF_PERICENTER": 303.6454, "MEAN_ANOMALY": 53.8273, "EPHEMERIS_TYPE": 0, "CLASSIFICATION_TYPE": "U", "NORAD_CAT_ID": 40695, "ELEMENT_SET_NO": 999, "REV_AT_EPOCH": 32009, "BSTAR": 0.00019428885, "MEAN_MOTION_DOT": 1.201e-05, "MEAN_MOTION_DDOT": 0}, "tle": {"line1": "1 40695U 99025EXB 25356.62030401  .00001201  00000+0  19429-3 0  9997", "line2": "2 40695  99.4259 116.0310 0280413 303.6454  53.8273 14.50985865320092"}}, "geometry": {"type": "Point", "coordinates": [-49.74078052037168, 52.4926513295178]}}, {"type": "Feature", "properties": {"norad_id": 40696, "name": "FENGYUN 1C DEB", "group": "fengyun-1c-debris", "lat": -57.71788911950771, "lon": -0.919700073301844, "alt_km": 859.5828761079592, "timestamp": "2025-12-24T03:53:29.937759+00:00", "meta": {"OBJECT_NAME": "FENGYUN 1C DEB", "OBJECT_ID": "1999-025EXC", "EPOCH": "2025-12-23T05:49:08.601888", "MEAN_MOTION": 13.96747225, "ECCENTRICITY": 0.00794074, "INCLINATION": 98.9575, "RA_OF_ASC_NODE": 343.7271, "ARG_OF_PERICENTER": 328.6574, "MEAN_ANOMALY": 30.9869, "EPHEMERIS_TYPE": 0, "CLASSIFICATION_TYPE": "U", "NORAD_CAT_ID": 40696, "ELEMENT_SET_NO": 999, "REV_AT_EPOCH": 55826, "BSTAR": 0.00024966024, "MEAN_MOTION_DOT": 3.12e-06, "MEAN_MOTION_DDOT": 0}, "tle": {"line1": "1 40696U 99025EXC 25357.24246067  .00000312  00000+0  24966-3 0  9998", "line2": "2 40696  98.9575 343.7271 0079407 328.6574  30.9869 13.96747225558266"}}, "geometry": {"type": "Point", "coordinates": [-0.919700073301844, -57.71788911950771]}}, {"type": "Feature", "properties": {"norad_id": 41003, "name": "FENGYUN 1C DEB", "group": "fengyun-1c-debris", "lat": 80.31744855794474, "lon": 166.19154451643186, "alt_km": 688.4995763672769, "timestamp": "2025-12-24T03:53:29.937769+00:00", "meta": {"OBJECT_NAME": "FENGYUN 1C DEB", "OBJECT_ID": "1999-025EXH", "EPOCH": "2025-12-23T12:47:40.558848", "MEAN_MOTION": 14.73333109, "ECCENTRICITY": 0.0068108, "INCLINATION": 98.9669, "RA_OF_ASC_NODE": 277.7627, "ARG_OF_PERICENTER": 258.0215, "MEAN_ANOMALY": 101.335, "EPHEMERIS_TYPE": 0, "CLASSIFICATION_TYPE": "U", "NORAD_CAT_ID": 41003, "ELEMENT_SET_NO": 999, "REV_AT_EPOCH": 52579, "BSTAR": 0.0041298, "MEAN_MOTION_DOT": 0.00027775, "MEAN_MOTION_DDOT": 0}, "tle": {"line1": "1 41003U 99025EXH 25357.53310832  .00027775  00000+0  41298-2 0  9993", "line2": "2 41003  98.9669 277.7627 0068108 258.0215 101.3350 14.73333109525796"}}, "geometry": {"type": "Point", "coordinates": [166.19154451643186, 80.31744855794474]}}]}